{"type":"FeatureCollection","features":[{"type":"Feature","geometry":{"type":"MultiPolygon","coordinates":[[[[101.914047,-0.920961],[101.845276,-0.982571],[101.650337,-0.93408],[101.595917,-0.851199],[101.395836,-0.738651],[101.407646,-0.720709],[101.355362,-0.68732],[101.359833,-0.65925],[101.253769,-0.62543],[101.162247,-0.53627],[101.068939,-0.50064],[101.024826,-0.398439],[101.036423,-0.34944],[100.996368,-0.31436],[100.915039,-0.32568],[100.907509,-0.371669],[100.844856,-0.337659],[100.838783,-0.2906],[100.781006,-0.230419],[100.733833,-0.04317],[100.776741,-0.01239],[100.809166,-0.041148],[100.845413,0.01544],[100.824219,0.118061],[100.842186,0.189851],[100.812531,0.268481],[100.74514,0.250221],[100.668938,0.18083],[100.605743,0.183469],[100.451752,0.229109],[100.376022,0.35071],[100.281677,0.33296],[100.280533,0.41644],[100.206459,0.584121],[100.25573,0.709401],[100.130508,0.80901],[100.13134,0.902851],[100.081863,0.938071],[100.14064,0.951121],[100.161377,0.999161],[100.102188,1.09181],[100.183029,1.12499],[100.130478,1.174599],[100.094643,1.327261],[100.053658,1.361081],[100.077881,1.387211],[100.315857,1.416461],[100.337547,1.431191],[100.283859,1.46392],[100.291878,1.47756],[100.331718,1.479493],[100.323486,1.44348],[100.381348,1.450509],[100.434021,1.511289],[100.415894,1.537212],[100.455322,1.629089],[100.411362,1.69775],[100.421158,1.767701],[100.285522,1.813293],[100.361328,2.201904],[100.307129,2.357482],[100.3293,2.529452],[100.361389,2.393055],[100.43,2.272778],[100.645546,2.110561],[100.670403,2.124381],[100.773567,2.081344],[100.795021,2.112496],[100.760902,2.252232],[100.789444,2.286945],[101.053665,2.28401],[101.078056,2.214441],[101.305,2.041667],[101.356941,1.779443],[101.409721,1.698055],[101.561386,1.637221],[101.751945,1.664723],[102.006752,1.45814],[102.149017,1.378252],[102.166061,1.182529],[102.150597,1.166825],[102.152969,1.132561],[102.122726,1.124511],[102.166817,1.133411],[102.180069,1.230281],[102.209427,1.187251],[102.191437,1.093891],[102.229172,0.995434],[102.407532,0.811556],[102.570236,0.738701],[102.674683,0.755719],[102.894142,0.728491],[103.104446,0.478611],[103.10733,0.455001],[102.899178,0.33559],[102.612465,0.230497],[102.573799,0.169348],[102.521767,0.203079],[102.494911,0.24997],[102.430275,0.26111],[102.405815,0.208622],[102.431664,0.243611],[102.484947,0.239691],[102.513992,0.19311],[102.548119,0.171994],[102.527206,0.168425],[102.583611,0.154167],[102.598793,0.201912],[102.69117,0.248486],[102.859177,0.25005],[103.142067,0.39348],[103.195908,0.475206],[103.32621,0.545462],[103.414749,0.521301],[103.585732,0.393189],[103.6007,0.294215],[103.614403,0.345418],[103.651665,0.337222],[103.712776,0.299446],[103.753052,0.229166],[103.811668,-0.010834],[103.614273,-0.006715],[103.567307,-0.025967],[103.59581,-0.037978],[103.583702,-0.06066],[103.533882,-0.079921],[103.504738,-0.07983],[103.457008,-0.044549],[103.488052,-0.089149],[103.454102,-0.11187],[103.501549,-0.147554],[103.424141,-0.207049],[103.521393,-0.21111],[103.442245,-0.352848],[103.547226,-0.215831],[103.709442,-0.255829],[103.786392,-0.340556],[103.604721,-0.395834],[103.55278,-0.385277],[103.604164,-0.426389],[103.553055,-0.496112],[103.400467,-0.517549],[103.436386,-0.541945],[103.404716,-0.60417],[103.430557,-0.61583],[103.373337,-0.651111],[103.421112,-0.669167],[103.362617,-0.696942],[103.435143,-0.710556],[103.412331,-0.731389],[103.459999,-0.735277],[103.485001,-0.771112],[103.360077,-0.80318],[103.126038,-0.746429],[103.007942,-0.75602],[102.913399,-0.886409],[102.789528,-0.976889],[102.779449,-1.026619],[102.63903,-1.121101],[102.616806,-1.094629],[102.48381,-1.080979],[102.44252,-1.02545],[102.382446,-1.02669],[102.38623,-0.99338],[102.326332,-0.963339],[102.306816,-0.91736],[102.20359,-0.94852],[102.165001,-0.89873],[102.116623,-0.921171],[102.007767,-0.878599],[101.914047,-0.920961]]],[[[103.208931,0.7028],[103.281151,0.653311],[103.30043,0.550661],[103.169434,0.497803],[103.138641,0.552931],[103.148483,0.66511],[103.208931,0.7028]]],[[[103.109169,0.666945],[103.103752,0.630071],[103.093102,0.652121],[103.109169,0.666945]]],[[[103.067978,0.563381],[103.028374,0.636104],[103.035622,0.660158],[103.083977,0.591011],[103.067978,0.563381]]],[[[102.966736,0.35389],[102.986626,0.335219],[102.945236,0.312279],[102.934753,0.340978],[102.966736,0.35389]]],[[[102.908363,0.30936],[102.937454,0.316539],[102.853996,0.26006],[102.819542,0.26782],[102.908363,0.30936]]],[[[101.415833,1.83972],[101.383057,1.91056],[101.398056,2.0075],[101.446945,2.057222],[101.484169,2.062781],[101.516388,2.0275],[101.580345,2.073965],[101.592461,2.056639],[101.586113,2.08611],[101.620003,2.106112],[101.621925,2.064369],[101.626564,2.096252],[101.612999,2.101656],[101.655724,2.124963],[101.708885,2.091945],[101.777779,1.986669],[101.784164,1.936389],[101.728333,1.940555],[101.777779,1.928332],[101.732224,1.763888],[101.61528,1.688055],[101.454445,1.725555],[101.415833,1.83972]]],[[[101.402496,1.827501],[101.406113,1.757219],[101.394165,1.789166],[101.402496,1.827501]]],[[[102.03833,1.609171],[102.462502,1.5175],[102.497498,1.469171],[102.47139,1.4425],[102.495552,1.432219],[102.508278,1.254549],[102.294716,1.428889],[102.181946,1.43778],[102.084999,1.481667],[101.99855,1.584105],[102.03833,1.609171]]],[[[102.44252,1.08239],[102.478317,0.941141],[102.44014,0.94943],[102.386307,0.91344],[102.277443,1.003204],[102.236137,1.101478],[102.245789,1.194704],[102.205338,1.277218],[102.229706,1.352399],[102.213898,1.41431],[102.290672,1.41322],[102.484993,1.238279],[102.484642,1.198129],[102.442146,1.242096],[102.483612,1.195],[102.44252,1.08239]]],[[[102.657677,1.03797],[102.680397,1.108101],[102.73597,1.1547],[102.874504,1.134391],[103.003326,1.072781],[103.154999,0.894719],[103.153206,0.847245],[103.071854,0.831692],[102.88929,0.964007],[102.806084,0.992549],[102.790306,1.023331],[102.821716,1.04924],[102.880127,1.042189],[102.854736,1.085342],[102.811562,1.080421],[102.81189,1.036981],[102.778641,1.020097],[102.73085,1.039711],[102.624474,1.011149],[102.657677,1.03797]]],[[[102.536591,1.127383],[102.614899,1.047572],[102.6082,1.005649],[102.500656,0.945325],[102.45977,1.076551],[102.48484,1.12999],[102.536591,1.127383]]],[[[102.865929,1.059505],[102.823753,1.053876],[102.842125,1.071836],[102.865929,1.059505]]],[[[102.905869,0.778383],[102.691811,0.792222],[102.56028,0.76921],[102.43708,0.82588],[102.408745,0.887096],[102.440979,0.93514],[102.48465,0.929567],[102.589317,1.001665],[102.638046,0.97948],[102.737106,1.02234],[102.743286,0.995879],[102.646317,0.95067],[102.626183,0.903375],[102.646179,0.948769],[102.684723,0.957781],[102.697144,0.927527],[102.782051,0.904975],[102.78083,0.926944],[102.746651,0.908059],[102.69558,0.937002],[102.77578,1.005175],[103.046654,0.82447],[103.048889,0.718611],[102.994003,0.689499],[102.905869,0.778383]]],[[[103.092308,0.820251],[103.109169,0.806708],[103.082703,0.795887],[103.075043,0.820691],[103.092308,0.820251]]],[[[103.103416,0.798351],[103.114723,0.736939],[103.087738,0.717289],[103.080353,0.77615],[103.103416,0.798351]]],[[[103.546112,0.448891],[103.590279,0.408331],[103.558212,0.423656],[103.546112,0.448891]]],[[[103.628563,-0.016778],[103.64669,-0.050217],[103.599472,-0.020901],[103.628563,-0.016778]]],[[[103.666656,-0.05315],[103.635635,-0.016538],[103.680496,-0.038186],[103.666656,-0.05315]]],[[[103.479721,-0.053889],[103.501663,-0.081667],[103.528336,-0.082777],[103.490547,-0.085829],[103.463608,-0.045556],[103.479721,-0.053889]]],[[[103.581146,-0.077897],[103.590836,-0.097778],[103.542999,-0.121347],[103.473335,-0.108055],[103.581146,-0.077897]]],[[[103.557281,-0.176062],[103.566826,-0.195259],[103.477783,-0.20167],[103.557281,-0.176062]]],[[[100.735832,2.149445],[100.710281,2.21722],[100.739441,2.261945],[100.785553,2.121667],[100.735832,2.149445]]],[[[100.638336,2.219241],[100.67028,2.196739],[100.684448,2.161741],[100.632797,2.195269],[100.638336,2.219241]]]]},"id":14,"properties":{"ID":19,"kode":14,"Propinsi":"RIAU","SUMBER":"Peta Dasar BAKOSURTANAL Skala 1 : 250.000"}},{"type":"Feature","geometry":{"type":"MultiPolygon","coordinates":[[[[103.991943,1.134721],[104.013611,1.189443],[104.071663,1.118888],[104.101944,1.140834],[104.071953,1.18778],[104.098892,1.199444],[104.138885,1.169166],[104.136948,1.039722],[104.101379,1.042414],[104.079712,1.024154],[104.100166,0.982464],[104.030563,1.00639],[104.040527,0.9825],[104.008575,0.985876],[103.990829,1.017414],[103.94265,1.008161],[103.910004,1.038056],[103.888046,1.0925],[103.937225,1.08389],[103.920227,1.14296],[103.991943,1.134721]]],[[[103.888046,1.158889],[103.889458,1.14181],[103.868889,1.147222],[103.888046,1.158889]]],[[[103.802505,1.101735],[103.812241,1.084147],[103.790558,1.096945],[103.802505,1.101735]]],[[[103.849442,1.069171],[103.882149,1.05321],[103.838646,1.027541],[103.83255,1.06309],[103.849442,1.069171]]],[[[104.181389,1.068332],[104.167503,1.022221],[104.154999,1.041389],[104.181389,1.068332]]],[[[103.749954,1.026713],[103.791252,1.04645],[103.806206,0.972775],[103.782646,0.97739],[103.749954,1.026713]]],[[[103.903107,1.03268],[103.919678,1.012794],[103.903259,1.002832],[103.885101,1.02966],[103.903107,1.03268]]],[[[103.832474,0.989007],[103.868256,1.037678],[103.877739,1.012594],[103.900421,0.998828],[103.925278,1.008061],[103.974998,0.954444],[103.941902,0.909791],[103.832474,0.989007]]],[[[104.178833,1.02863],[104.174721,0.998611],[104.155556,0.998333],[104.155243,1.016117],[104.178833,1.02863]]],[[[103.991943,1.000556],[103.981392,1.005834],[103.992226,1.011944],[103.991943,1.000556]]],[[[104.245827,0.997499],[104.258888,0.97389],[104.232224,0.979722],[104.245827,0.997499]]],[[[104.152237,0.97107],[104.172226,0.973541],[104.198067,0.945872],[104.153069,0.93375],[104.152237,0.97107]]],[[[104.0625,0.967223],[104.079666,0.949464],[104.068428,0.914281],[104.044579,0.938139],[104.0625,0.967223]]],[[[104.178719,0.78228],[104.14537,0.856911],[104.09214,0.870374],[104.094444,0.926755],[104.078018,0.959827],[104.119728,0.961952],[104.140556,0.942221],[104.167175,0.867541],[104.184509,0.88475],[104.265961,0.85921],[104.245346,0.820324],[104.178719,0.78228]]],[[[104.168579,0.941861],[104.191391,0.928334],[104.161392,0.910555],[104.168579,0.941861]]],[[[104.21447,0.916711],[104.193329,0.902286],[104.204201,0.922235],[104.21447,0.916711]]],[[[104.048843,0.921121],[104.051514,0.900766],[104.035652,0.892237],[104.048843,0.921121]]],[[[104.193886,0.78806],[104.276863,0.796511],[104.264015,0.743706],[104.309097,0.707096],[104.248886,0.723611],[104.253304,0.692524],[104.218613,0.724445],[104.196388,0.720833],[104.170685,0.77976],[104.193886,0.78806]]],[[[104.30864,0.76319],[104.357208,0.741919],[104.299721,0.755833],[104.30864,0.76319]]],[[[104.264999,0.621389],[104.212471,0.718914],[104.285561,0.66168],[104.289169,0.610554],[104.264999,0.621389]]],[[[104.29319,0.689987],[104.301392,0.671667],[104.270416,0.682853],[104.29319,0.689987]]],[[[104.326897,0.678119],[104.329605,0.660429],[104.312317,0.66227],[104.314339,0.684932],[104.326897,0.678119]]],[[[104.085518,0.643431],[104.104195,0.624462],[104.085831,0.6025],[104.085518,0.643431]]],[[[104.198395,0.608487],[104.230003,0.570278],[104.203529,0.572165],[104.197502,0.541668],[104.198395,0.608487]]],[[[104.22525,0.557619],[104.238327,0.53083],[104.2192,0.541424],[104.22525,0.557619]]],[[[103.388893,1.16639],[103.40889,1.129167],[103.379448,1.150279],[103.388893,1.16639]]],[[[103.375,1.13806],[103.389725,1.066666],[103.425003,1.045559],[103.438919,0.988355],[103.350723,1.004977],[103.312225,1.043889],[103.310898,1.0875],[103.375,1.13806]]],[[[103.444168,0.962781],[103.473892,0.949719],[103.475281,0.919721],[103.425835,0.95611],[103.444168,0.962781]]],[[[103.418053,0.95],[103.439163,0.930834],[103.419327,0.913091],[103.406944,0.940555],[103.418053,0.95]]],[[[103.526588,0.867764],[103.501663,0.86169],[103.489807,0.926629],[103.526588,0.867764]]],[[[103.448593,0.92195],[103.47905,0.908221],[103.486595,0.854903],[103.409561,0.892529],[103.448593,0.92195]]],[[[103.752777,0.90139],[103.765831,0.882501],[103.744156,0.894441],[103.752777,0.90139]]],[[[103.932793,0.76699],[103.918098,0.755371],[103.835861,0.838657],[103.810516,0.899544],[103.898209,0.854561],[103.896111,0.804721],[103.906944,0.833333],[103.932793,0.76699]]],[[[103.505753,0.723843],[103.458176,0.638205],[103.400017,0.649092],[103.34333,0.800561],[103.370277,0.894444],[103.405396,0.882045],[103.412231,0.84503],[103.486664,0.794171],[103.505753,0.723843]]],[[[103.748337,0.886391],[103.83432,0.812035],[103.829681,0.752109],[103.719788,0.85222],[103.748337,0.886391]]],[[[103.422485,0.875584],[103.494286,0.845531],[103.527649,0.76686],[103.472771,0.822776],[103.421257,0.841823],[103.422485,0.875584]]],[[[103.671112,0.864168],[103.693024,0.823861],[103.654678,0.873375],[103.671112,0.864168]]],[[[103.701981,0.857501],[103.696854,0.836451],[103.691391,0.856667],[103.701981,0.857501]]],[[[103.699379,0.80447],[103.728027,0.766115],[103.713066,0.752],[103.661285,0.828747],[103.699379,0.80447]]],[[[103.54023,0.793539],[103.554886,0.778246],[103.543266,0.754735],[103.529892,0.776238],[103.54023,0.793539]]],[[[103.966095,0.76825],[103.95089,0.763291],[103.962479,0.777925],[103.966095,0.76825]]],[[[103.654968,0.74142],[103.687973,0.723951],[103.674232,0.712245],[103.654968,0.74142]]],[[[103.746147,0.736406],[103.741257,0.684986],[103.693207,0.710456],[103.692604,0.728509],[103.746147,0.736406]]],[[[103.509483,0.702729],[103.516907,0.69439],[103.495583,0.692653],[103.509483,0.702729]]],[[[103.520882,0.6907],[103.490433,0.625259],[103.46209,0.622588],[103.488167,0.681338],[103.520882,0.6907]]],[[[103.683189,0.632263],[103.706596,0.615174],[103.673744,0.613337],[103.683189,0.632263]]],[[[103.64637,0.621533],[103.664047,0.614349],[103.63105,0.621476],[103.64637,0.621533]]],[[[103.595352,0.531329],[103.623047,0.507661],[103.618752,0.494904],[103.597855,0.490893],[103.576202,0.558519],[103.595352,0.531329]]],[[[103.636169,0.532426],[103.634186,0.514899],[103.61972,0.526666],[103.636169,0.532426]]],[[[104.221107,1.058612],[104.238609,1.124171],[104.334999,1.145],[104.311668,1.182501],[104.371727,1.179231],[104.39389,1.204445],[104.499443,1.169166],[104.562225,1.190556],[104.545555,1.2175],[104.584167,1.228332],[104.577156,1.156674],[104.657051,1.045382],[104.634163,0.986188],[104.660164,0.9152],[104.621002,0.900818],[104.594337,0.810601],[104.557312,0.813413],[104.476234,0.849759],[104.491501,0.875025],[104.438919,0.906104],[104.438118,0.932751],[104.476883,0.919293],[104.498665,0.935507],[104.40889,0.963611],[104.415306,0.978571],[104.495552,0.97972],[104.440353,0.99803],[104.445686,1.017259],[104.481018,1.014196],[104.498337,1.03639],[104.416954,1.039773],[104.416809,1.068339],[104.37925,1.010575],[104.316818,1.039859],[104.331375,0.994548],[104.250557,1.00417],[104.221107,1.058612]]],[[[107.41111,1.103226],[107.388336,1.088888],[107.403893,1.113334],[107.41111,1.103226]]],[[[107.504906,1.048235],[107.519447,1.046341],[107.503738,1.035955],[107.504906,1.048235]]],[[[104.821388,0.968055],[104.78611,1.02889],[104.849442,1.01333],[104.854164,0.9825],[104.821388,0.968055]]],[[[107.531166,1.02283],[107.587502,1.01111],[107.603615,0.991111],[107.547775,0.949444],[107.574539,1.007085],[107.544998,0.972221],[107.531166,1.02283]]],[[[107.42778,0.97889],[107.471107,0.969441],[107.468613,0.923334],[107.438332,0.932501],[107.42778,0.97889]]],[[[104.627151,0.89593],[104.661942,0.880279],[104.628212,0.854511],[104.627151,0.89593]]],[[[104.683609,0.895834],[104.695831,0.848888],[104.676392,0.84639],[104.660278,0.862499],[104.683609,0.895834]]],[[[104.45945,0.884146],[104.485085,0.870221],[104.416557,0.87629],[104.45945,0.884146]]],[[[104.648331,0.86889],[104.666389,0.82],[104.62603,0.803713],[104.648331,0.86889]]],[[[104.623245,0.849223],[104.613647,0.846101],[104.621719,0.86092],[104.623245,0.849223]]],[[[104.364296,0.846365],[104.356056,0.81376],[104.353302,0.845016],[104.364296,0.846365]]],[[[104.548058,0.795278],[104.587502,0.776111],[104.50972,0.743335],[104.508789,0.773499],[104.548058,0.795278]]],[[[104.593887,0.794171],[104.636665,0.78389],[104.585556,0.751667],[104.593887,0.794171]]],[[[104.706322,0.790191],[104.74704,0.786283],[104.750153,0.753349],[104.687912,0.772549],[104.706322,0.790191]]],[[[104.696114,0.763334],[104.757629,0.74733],[104.762222,0.733334],[104.734398,0.717881],[104.696114,0.763334]]],[[[104.659164,0.753333],[104.620163,0.69751],[104.601768,0.699288],[104.615585,0.738065],[104.659164,0.753333]]],[[[107.241669,0.14639],[107.251389,0.141109],[107.22139,0.098888],[107.204437,0.12694],[107.241669,0.14639]]],[[[104.408302,0.472981],[104.426178,0.459885],[104.40168,0.46247],[104.408302,0.472981]]],[[[104.521347,0.424976],[104.5625,0.4125],[104.52916,0.404983],[104.533157,0.361604],[104.521347,0.424976]]],[[[104.324257,0.38417],[104.325531,0.369253],[104.305267,0.385],[104.324257,0.38417]]],[[[104.430405,0.384874],[104.433197,0.372036],[104.408951,0.377782],[104.430405,0.384874]]],[[[104.414612,0.301367],[104.398888,0.284444],[104.389725,0.308612],[104.354446,0.313888],[104.328743,0.375651],[104.424026,0.326898],[104.43354,0.307211],[104.398056,0.313888],[104.414612,0.301367]]],[[[104.468361,0.364601],[104.490631,0.346131],[104.459511,0.34875],[104.468361,0.364601]]],[[[104.302498,0.346945],[104.32222,0.336388],[104.319168,0.308056],[104.301392,0.30944],[104.302498,0.346945]]],[[[104.327499,0.32806],[104.369446,0.30528],[104.386673,0.273609],[104.355278,0.27861],[104.327499,0.32806]]],[[[104.362251,0.268636],[104.363892,0.255834],[104.351685,0.274184],[104.362251,0.268636]]],[[[104.498802,0.261466],[104.512192,0.250579],[104.489418,0.266601],[104.498802,0.261466]]],[[[104.443611,0.250834],[104.473717,0.227603],[104.447258,0.234139],[104.443611,0.250834]]],[[[104.515556,0.225561],[104.531113,0.20944],[104.514519,0.247661],[104.704475,0.046888],[104.702049,0.018291],[104.621956,0.074787],[104.634163,0.077501],[104.627777,0.095834],[104.605606,0.095834],[104.619156,0.075001],[104.564049,0.115879],[104.545097,0.145139],[104.569168,0.142219],[104.54528,0.16806],[104.536842,0.15057],[104.504723,0.191389],[104.527908,0.184785],[104.52417,0.19726],[104.47583,0.242777],[104.515556,0.225561]]],[[[104.232468,0.199581],[104.241783,0.17658],[104.227524,0.154723],[104.200279,0.170834],[104.232468,0.199581]]],[[[104.473442,0.177131],[104.483856,0.161489],[104.461945,0.170278],[104.473442,0.177131]]],[[[104.298744,0.166706],[104.336342,0.130701],[104.336937,0.10628],[104.300751,0.128406],[104.298744,0.166706]]],[[[104.435089,0.064922],[104.378044,0.123239],[104.432777,0.089441],[104.401947,0.162431],[104.492004,0.072191],[104.486755,0.043938],[104.462502,0.060278],[104.494789,0.014492],[104.435089,0.064922]]],[[[104.488892,0.151944],[104.516388,0.130833],[104.516388,0.108055],[104.488892,0.151944]]],[[[104.54187,0.102252],[104.56105,0.072029],[104.534019,0.095916],[104.54187,0.102252]]],[[[104.743607,0.08667],[104.754639,0.078303],[104.740501,0.075097],[104.743607,0.08667]]],[[[104.491394,0.088336],[104.498795,0.071992],[104.480873,0.087456],[104.491394,0.088336]]],[[[104.769371,0.059421],[104.784454,0.030865],[104.739166,0.0325],[104.738609,0.048333],[104.769371,0.059421]]],[[[104.539162,0.044531],[104.543839,0.032846],[104.521446,0.051195],[104.539162,0.044531]]],[[[104.659157,-0.110831],[104.682777,-0.083889],[104.788055,-0.204863],[104.823334,-0.195277],[104.827225,-0.132779],[104.896942,-0.231112],[104.997498,-0.278056],[105.001732,-0.30332],[104.921944,-0.277777],[104.899796,-0.294237],[104.929733,-0.324721],[104.915833,-0.339722],[104.849167,-0.322499],[104.703331,-0.20472],[104.521667,-0.276239],[104.498611,-0.24194],[104.429169,-0.236666],[104.426109,-0.184169],[104.504997,-0.129166],[104.493614,0.003333],[104.531387,-0.02444],[104.548897,0.0027],[104.565834,-0.011944],[104.552177,0.02917],[104.653336,-0.051667],[104.668053,-0.077779],[104.624443,-0.079445],[104.659157,-0.110831]]],[[[104.532501,0.026389],[104.545479,0.006588],[104.522987,-0.001248],[104.513245,0.013289],[104.532501,0.026389]]],[[[104.842224,-0.035555],[104.879166,-0.081111],[104.837502,-0.053059],[104.842224,-0.035555]]],[[[104.731598,-0.098751],[104.766388,-0.148334],[104.745003,-0.139445],[104.731598,-0.098751]]],[[[104.470001,-0.277219],[104.491943,-0.307778],[104.46389,-0.31333],[104.459717,-0.328329],[104.385834,-0.298611],[104.470001,-0.277219]]],[[[104.233887,-0.331943],[104.233055,-0.355555],[104.221107,-0.343335],[104.233887,-0.331943]]],[[[104.320831,-0.360834],[104.324722,-0.339439],[104.337776,-0.38889],[104.311119,-0.416878],[104.346107,-0.44639],[104.346947,-0.3875],[104.385834,-0.413334],[104.430275,-0.383611],[104.440277,-0.340278],[104.480415,-0.335485],[104.597427,-0.45986],[104.517776,-0.57167],[104.503326,-0.64694],[104.428886,-0.57639],[104.395279,-0.604722],[104.389168,-0.666944],[104.355835,-0.679443],[104.330559,-0.514445],[104.30722,-0.539719],[104.2425,-0.485833],[104.276947,-0.395556],[104.320831,-0.360834]]],[[[104.156113,-0.3375],[104.177498,-0.350833],[104.157501,-0.36528],[104.142776,-0.350277],[104.156113,-0.3375]]],[[[104.186111,-0.360556],[104.230278,-0.364439],[104.234169,-0.386112],[104.185555,-0.38889],[104.186111,-0.360556]]],[[[104.196114,-0.392222],[104.229156,-0.39389],[104.223053,-0.429445],[104.195274,-0.42361],[104.196114,-0.392222]]],[[[107.964722,4.66889],[107.927498,4.693334],[108.007179,4.775322],[107.964722,4.66889]]],[[[108.120285,3.726185],[108.18882,3.783804],[108.275383,3.710817],[108.208305,3.802454],[108.061745,3.83516],[107.961945,4.003333],[108.07386,4.06799],[108.218857,4.23043],[108.242348,4.216281],[108.233963,4.128587],[108.402809,3.96678],[108.389877,3.893811],[108.362556,3.90342],[108.352882,3.876487],[108.367233,3.895001],[108.378372,3.856221],[108.407944,3.886981],[108.410088,3.858323],[108.387474,3.793217],[108.309113,3.730069],[108.296234,3.657469],[108.223572,3.663732],[108.156494,3.630646],[108.089989,3.67947],[108.120285,3.726185]]],[[[107.860283,4.160001],[107.863892,4.1275],[107.84417,4.111667],[107.860283,4.160001]]],[[[107.897781,3.913612],[107.921669,3.900555],[107.911942,3.88139],[107.894302,3.892223],[107.897781,3.913612]]],[[[108.002502,3.817779],[108.02861,3.80722],[108.040001,3.765833],[108.012573,3.778473],[108.002502,3.817779]]],[[[108.116943,3.763059],[108.126389,3.755278],[108.113892,3.751388],[108.116943,3.763059]]],[[[108.05246,3.715161],[108.089447,3.694444],[108.085945,3.682095],[108.044151,3.676598],[108.05246,3.715161]]],[[[108.053886,3.669722],[108.083054,3.654445],[108.081947,3.633611],[108.050545,3.631025],[108.053886,3.669722]]],[[[108.105278,3.637221],[108.121407,3.606961],[108.07,3.583609],[108.076401,3.612536],[108.105278,3.637221]]],[[[108.044167,3.593891],[108.044701,3.556943],[108.033058,3.574905],[108.044167,3.593891]]],[[[108.087624,3.583575],[108.095558,3.572221],[108.080826,3.574171],[108.087624,3.583575]]],[[[106.343887,3.417499],[106.338264,3.351805],[106.320557,3.32194],[106.329086,3.40451],[106.343887,3.417499]]],[[[106.279671,3.402523],[106.290833,3.387221],[106.268394,3.394186],[106.279671,3.402523]]],[[[106.440002,3.395834],[106.443336,3.379166],[106.427223,3.3725],[106.440002,3.395834]]],[[[106.185555,3.300832],[106.171387,3.332779],[106.226967,3.394551],[106.226669,3.31167],[106.212502,3.297222],[106.20137,3.325823],[106.199997,3.288056],[106.185555,3.300832]]],[[[106.260559,3.34778],[106.264488,3.336977],[106.269447,3.381671],[106.302643,3.38014],[106.288055,3.250001],[106.273056,3.29694],[106.260559,3.289166],[106.284164,3.224999],[106.226936,3.259441],[106.260559,3.34778]]],[[[106.407776,3.308333],[106.394157,3.289441],[106.392776,3.306391],[106.407776,3.308333]]],[[[106.449928,3.250835],[106.454933,3.225108],[106.437233,3.24],[106.449928,3.250835]]],[[[106.202011,3.228541],[106.226669,3.235834],[106.288063,3.179441],[106.278267,3.07611],[106.248611,3.121111],[106.236664,3.095555],[106.210556,3.120833],[106.202011,3.228541]]],[[[106.304733,3.234441],[106.297379,3.215611],[106.291664,3.230277],[106.304733,3.234441]]],[[[106.486107,3.21139],[106.501877,3.202296],[106.498055,3.183612],[106.47683,3.19026],[106.486107,3.21139]]],[[[106.316948,3.163056],[106.311386,3.135834],[106.333611,3.158612],[106.343544,3.123333],[106.308411,3.083893],[106.284447,3.123055],[106.316948,3.163056]]],[[[106.086945,3.158334],[106.099167,3.13861],[106.089157,3.12278],[106.073891,3.146389],[106.086945,3.158334]]],[[[106.419167,3.150555],[106.436386,3.128612],[106.402779,3.134444],[106.419167,3.150555]]],[[[106.395554,3.15139],[106.396942,3.136391],[106.379448,3.138332],[106.395554,3.15139]]],[[[106.118614,3.133888],[106.122498,3.116945],[106.109726,3.124999],[106.118614,3.133888]]],[[[105.652222,3.120833],[105.674446,3.090347],[105.639168,3.090277],[105.652222,3.120833]]],[[[105.687767,3.118059],[105.694717,3.102219],[105.673889,3.109444],[105.687767,3.118059]]],[[[105.960831,3.102222],[105.961388,3.091111],[105.946663,3.098055],[105.960831,3.102222]]],[[[105.701668,3.10028],[105.735275,3.083056],[105.711388,3.073609],[105.701668,3.10028]]],[[[106.356041,3.092223],[106.353615,3.048056],[106.34111,3.064445],[106.356041,3.092223]]],[[[105.98278,3.087781],[105.991669,3.071941],[105.977554,3.016952],[105.963333,3.040277],[105.98278,3.087781]]],[[[105.835556,2.99167],[105.852219,2.957777],[105.82,2.96889],[105.828056,2.910556],[105.79583,2.908611],[105.821945,2.88639],[105.78389,2.907499],[105.76722,2.871391],[105.722557,2.873294],[105.769997,2.839166],[105.72583,2.816667],[105.693054,2.850277],[105.714722,2.959167],[105.713058,2.983333],[105.675003,3.008611],[105.70472,3.031945],[105.690552,3.057779],[105.719032,3.029859],[105.739998,3.05],[105.7425,2.97222],[105.835556,2.99167]]],[[[108.845383,3.052106],[108.868889,3.042221],[108.864662,3.013659],[108.842628,3.011941],[108.845383,3.052106]]],[[[106.408333,3.037223],[106.407776,3.012779],[106.392502,3.029171],[106.408333,3.037223]]],[[[107.785553,3.02028],[107.813263,2.98029],[107.757477,2.971379],[107.747498,3.006042],[107.785553,3.02028]]],[[[108.867599,3.010284],[108.890396,2.99946],[108.884453,2.879908],[108.817139,2.843667],[108.774979,2.89059],[108.867599,3.010284]]],[[[106.12722,2.939444],[106.149445,2.918888],[106.111946,2.92694],[106.12722,2.939444]]],[[[105.68898,2.924182],[105.6875,2.908889],[105.67778,2.918888],[105.68898,2.924182]]],[[[106.221657,2.745001],[106.200279,2.75889],[106.222221,2.767223],[106.196114,2.811112],[106.228333,2.804441],[106.254448,2.72389],[106.221657,2.745001]]],[[[108.921387,2.767501],[108.914436,2.737501],[108.886551,2.726805],[108.921387,2.767501]]],[[[106.167778,2.762223],[106.193336,2.746109],[106.184723,2.739167],[106.167778,2.762223]]],[[[108.559059,2.722721],[108.583336,2.686391],[108.535835,2.652683],[108.535767,2.67608],[108.569534,2.680347],[108.545631,2.708569],[108.578888,2.696112],[108.559059,2.722721]]],[[[109.053337,2.495001],[109.006645,2.489467],[109.031776,2.516169],[108.979179,2.520744],[108.975914,2.555733],[109.120514,2.530496],[109.113327,2.503611],[109.053337,2.495001]]],[[[108.949013,2.500911],[108.974968,2.49068],[108.973106,2.454099],[108.933647,2.44834],[108.906662,2.501989],[108.949013,2.533502],[108.949013,2.500911]]],[[[108.985863,2.506519],[108.99971,2.492658],[108.988022,2.48843],[108.985863,2.506519]]],[[[108.99913,2.465561],[108.984047,2.465561],[108.984047,2.483391],[108.99913,2.483391],[108.99913,2.465561]]],[[[104.392174,1.015839],[104.397118,0.996733],[104.365883,0.98954],[104.392174,1.015839]]]]},"id":21,"properties":{"ID":76,"kode":21,"Propinsi":"KEPULAUAN RIAU","SUMBER":"Peta Dasar BAKOSURTANAL Skala 1 : 250.000"}},{"type":"Feature","geometry":{"type":"MultiPolygon","coordinates":[[[[98.25574,4.290953],[98.251678,4.20263],[98.168282,4.159943],[98.171654,4.108615],[98.234329,4.129492],[98.272324,4.119934],[98.30899,4.072206],[98.387726,4.076143],[98.435066,4.039406],[98.528557,4.011974],[98.558937,3.939592],[98.609138,3.914186],[98.672783,3.9084],[98.697937,3.874467],[98.70237,3.811335],[98.788483,3.718319],[98.991402,3.652537],[99.073792,3.610853],[99.131668,3.565329],[99.205673,3.535731],[99.272652,3.473173],[99.372841,3.402371],[99.485054,3.348217],[99.487228,3.322032],[99.546608,3.244231],[99.670906,3.209138],[99.737755,3.170621],[99.828384,3.06429],[99.917145,2.979943],[99.998863,2.93651],[99.990746,2.856591],[100.000282,2.799706],[99.981476,2.742654],[100.006645,2.724051],[100.060226,2.733359],[100.098732,2.676424],[100.136818,2.672004],[100.176842,2.706297],[100.222885,2.703859],[100.241371,2.637462],[100.33075,2.534235],[100.302208,2.413565],[100.309578,2.34065],[100.360146,2.220377],[100.322708,2.014011],[100.322128,1.919015],[100.2864,1.830302],[100.292068,1.802315],[100.408333,1.777267],[100.455269,1.629147],[100.415886,1.537141],[100.434021,1.51129],[100.408829,1.470363],[100.315857,1.416456],[100.27504,1.421141],[100.242752,1.392655],[100.077881,1.387209],[100.086632,1.337513],[100.123497,1.254924],[100.130478,1.174596],[100.16082,1.151491],[100.108658,1.071883],[100.161377,0.999156],[100.136681,0.949117],[100.092819,0.915075],[100.132614,0.891546],[100.140305,0.797662],[100.183716,0.761895],[100.083336,0.791869],[99.957077,0.875112],[99.881943,0.90572],[99.835236,0.889678],[99.845215,0.83873],[99.845169,0.686254],[99.914688,0.680979],[99.919365,0.605901],[99.964767,0.554445],[99.908188,0.474805],[99.82309,0.461878],[99.765022,0.481917],[99.716553,0.454064],[99.670876,0.481021],[99.640007,0.547226],[99.587463,0.516625],[99.499702,0.538817],[99.407265,0.493468],[99.331474,0.362899],[99.297096,0.337691],[99.235527,0.327712],[99.16198,0.231812],[99.153839,0.308747],[99.109512,0.342637],[99.135689,0.435732],[99.093124,0.60576],[99.071304,0.629137],[99.057587,0.726479],[99.017548,0.813711],[98.991776,0.822795],[98.969215,0.931165],[98.927269,1.041666],[98.910728,1.122399],[98.839851,1.286661],[98.844856,1.333901],[98.777878,1.434891],[98.759827,1.528909],[98.772934,1.561786],[98.840958,1.628664],[98.82769,1.677764],[98.797264,1.683911],[98.769341,1.7595],[98.707138,1.789281],[98.67894,1.740839],[98.611458,1.838434],[98.501572,1.941459],[98.466949,1.987465],[98.389442,2.007457],[98.338593,2.045849],[98.271065,2.049494],[98.224586,2.096319],[98.153148,2.146027],[98.18766,2.319383],[98.155571,2.413039],[98.112091,2.424448],[98.109344,2.47093],[98.083992,2.50935],[98.075233,2.57553],[98.085129,2.63422],[98.12426,2.655123],[98.086838,2.7349],[98.088196,2.821929],[98.042084,2.828039],[98.006783,2.889557],[97.954605,2.900333],[97.958275,2.961847],[97.939224,3.071936],[97.983467,3.083911],[97.978615,3.127329],[97.942329,3.164997],[97.925278,3.226437],[97.872261,3.249049],[97.984924,3.275573],[98.029823,3.329871],[98.003082,3.369784],[97.949715,3.391531],[97.906899,3.553616],[97.869896,3.57131],[97.843933,3.660525],[97.803185,3.731739],[97.908562,3.820508],[97.89991,3.89141],[97.944946,3.89686],[97.95816,3.928891],[98.023132,3.969775],[98.059311,4.190727],[98.090927,4.19672],[98.145401,4.287369],[98.25574,4.290953]],[[98.92707,2.662123],[98.922714,2.694872],[98.833435,2.747945],[98.79274,2.79301],[98.692108,2.850813],[98.625786,2.878684],[98.531593,2.892692],[98.527939,2.792798],[98.593155,2.730381],[98.624992,2.681004],[98.616501,2.648208],[98.683029,2.637003],[98.695267,2.72581],[98.723587,2.754783],[98.777992,2.739367],[98.854713,2.665531],[98.921768,2.541882],[98.971985,2.50286],[98.98819,2.455078],[98.922638,2.428574],[98.874153,2.425913],[98.778,2.504612],[98.72554,2.532148],[98.69825,2.601211],[98.667595,2.545009],[98.733681,2.51731],[98.804596,2.424474],[98.817467,2.378578],[98.854034,2.333492],[98.917976,2.348454],[98.991257,2.324367],[99.029228,2.357742],[99.055664,2.329031],[99.151482,2.391701],[99.148209,2.430922],[99.062157,2.391961],[99.04792,2.48477],[99.027946,2.516789],[98.924484,2.584452],[98.909531,2.623648],[98.92707,2.662123]]],[[[97.500496,0.916113],[97.471382,0.935922],[97.399849,0.942146],[97.358147,1.075364],[97.253624,1.231068],[97.182999,1.289336],[97.136726,1.3638],[97.073105,1.417242],[97.122917,1.424893],[97.19696,1.395284],[97.257141,1.410369],[97.340027,1.4905],[97.386353,1.493314],[97.428909,1.468561],[97.476486,1.468499],[97.530159,1.407647],[97.530495,1.382853],[97.583405,1.330732],[97.678436,1.177108],[97.787994,1.149787],[97.854446,1.053744],[97.889046,1.051632],[97.935623,0.960954],[97.893776,0.898828],[97.885437,0.823092],[97.89946,0.793721],[97.875778,0.743668],[97.8918,0.628914],[97.827011,0.568907],[97.795334,0.558244],[97.733276,0.577961],[97.704224,0.559856],[97.658752,0.659734],[97.645798,0.737644],[97.58802,0.838179],[97.500496,0.916113]]],[[[98.409668,-0.596789],[98.341278,-0.512249],[98.370155,-0.452895],[98.367058,-0.377264],[98.380356,-0.337618],[98.436165,-0.295887],[98.442184,-0.244816],[98.516144,-0.35539],[98.501068,-0.394909],[98.498665,-0.490648],[98.476936,-0.518796],[98.498367,-0.555216],[98.409668,-0.596789]]],[[[98.371108,0.005866],[98.414833,-0.025506],[98.465797,-0.0922],[98.488098,-0.203953],[98.568024,-0.27773],[98.56321,-0.328114],[98.51564,-0.321089],[98.427185,-0.20239],[98.384697,-0.132913],[98.356728,-0.054339],[98.314896,-0.011829],[98.371108,0.005866]]],[[[98.598198,0.094976],[98.5308,0.106037],[98.522354,0.144102],[98.60891,0.183891],[98.717834,0.159357],[98.796844,0.171431],[98.850594,0.117946],[98.844627,0.082099],[98.777519,0.098079],[98.74559,0.073061],[98.598198,0.094976]]],[[[98.460686,1.702748],[98.486298,1.698948],[98.50116,1.625],[98.444466,1.652204],[98.460686,1.702748]]]]},"id":12,"properties":{"ID":24,"kode":12,"Propinsi":"SUMATERA UTARA","SUMBER":"Peta Dasar BAKOSURTANAL Skala 1 : 250.000"}},{"type":"Feature","geometry":{"type":"MultiPolygon","coordinates":[[[[99.16198,0.231812],[99.235527,0.327712],[99.297096,0.337691],[99.331474,0.362899],[99.407265,0.493468],[99.499702,0.538817],[99.587463,0.516625],[99.640007,0.547226],[99.670876,0.481021],[99.716553,0.454064],[99.765022,0.481917],[99.82309,0.461878],[99.908188,0.474805],[99.964767,0.554445],[99.919365,0.605901],[99.914688,0.680979],[99.845169,0.686254],[99.845215,0.83873],[99.835236,0.889678],[99.881943,0.90572],[99.957077,0.875112],[100.083336,0.791869],[100.183716,0.761895],[100.25573,0.709395],[100.205925,0.593234],[100.219559,0.524918],[100.282326,0.408069],[100.281677,0.332958],[100.361946,0.354324],[100.394623,0.339763],[100.43718,0.247852],[100.464088,0.222191],[100.605743,0.183473],[100.687881,0.177849],[100.727119,0.193165],[100.778122,0.169268],[100.792191,0.120829],[100.753342,0.048535],[100.770103,-0.033094],[100.748398,-0.065219],[100.781006,-0.23042],[100.838776,-0.290596],[100.833672,-0.318377],[100.910423,-0.370743],[100.94133,-0.312437],[100.996368,-0.314363],[101.031708,-0.340868],[101.024826,-0.398442],[101.06768,-0.498227],[101.181267,-0.549494],[101.256569,-0.626754],[101.359833,-0.659254],[101.407272,-0.736848],[101.500015,-0.807856],[101.595917,-0.8512],[101.6539,-0.935173],[101.747887,-0.967631],[101.821533,-0.977189],[101.830315,-1.10193],[101.878525,-1.110225],[101.858885,-1.158166],[101.815407,-1.209807],[101.709229,-1.237597],[101.689585,-1.295043],[101.719172,-1.344921],[101.691318,-1.397239],[101.720899,-1.42113],[101.694035,-1.480637],[101.567154,-1.572305],[101.526581,-1.616804],[101.492464,-1.681019],[101.431198,-1.696775],[101.415512,-1.671203],[101.319626,-1.693206],[101.258324,-1.693337],[101.21579,-1.714355],[101.18763,-1.677177],[101.125816,-1.679094],[101.124443,-1.78474],[101.144699,-1.917723],[101.194092,-1.989151],[101.243668,-2.021798],[101.291611,-2.133106],[101.306076,-2.23891],[101.294159,-2.280203],[101.244644,-2.344946],[101.155373,-2.390157],[101.027755,-2.482182],[100.992081,-2.431542],[100.897308,-2.337769],[100.877205,-2.247514],[100.831245,-2.188847],[100.82914,-2.147044],[100.869568,-2.104535],[100.884331,-2.042843],[100.858192,-1.919218],[100.78273,-1.819229],[100.684204,-1.661846],[100.64151,-1.618727],[100.633499,-1.562898],[100.555435,-1.403785],[100.576469,-1.376961],[100.544067,-1.308304],[100.492241,-1.299992],[100.458786,-1.26039],[100.402206,-1.268252],[100.417633,-1.200178],[100.382729,-1.178114],[100.410194,-1.037552],[100.364952,-0.995286],[100.342545,-0.882115],[100.269402,-0.782622],[100.117134,-0.631379],[100.080696,-0.549656],[99.971771,-0.443441],[99.918625,-0.404366],[99.886421,-0.349305],[99.820641,-0.306837],[99.806374,-0.245461],[99.750984,-0.153287],[99.765541,-0.065272],[99.735329,-0.027319],[99.610626,0.069696],[99.471992,0.134715],[99.394257,0.152445],[99.353981,0.230505],[99.312424,0.238678],[99.253555,0.211412],[99.16198,0.231812]],[[100.148926,-0.294198],[100.165466,-0.310519],[100.165375,-0.388144],[100.218018,-0.396025],[100.226418,-0.288869],[100.194832,-0.252879],[100.148926,-0.294198]],[[100.500008,-0.534535],[100.487389,-0.577913],[100.540764,-0.666713],[100.59713,-0.680994],[100.544914,-0.55475],[100.500008,-0.534535]]],[[[99.263031,-1.718946],[99.241554,-1.791817],[99.170258,-1.775342],[99.104195,-1.809051],[99.009583,-1.762335],[98.872444,-1.675564],[98.81971,-1.61324],[98.831772,-1.58409],[98.798141,-1.519863],[98.686104,-1.357201],[98.628815,-1.283929],[98.597008,-1.222869],[98.64505,-1.10431],[98.65641,-0.979386],[98.715179,-0.94198],[98.786461,-0.954942],[98.905327,-0.907312],[98.901535,-0.943195],[98.930374,-1.056429],[98.997421,-1.109993],[99.003639,-1.159117],[99.029007,-1.183758],[99.069817,-1.264657],[99.095047,-1.360714],[99.162605,-1.427637],[99.159073,-1.492668],[99.192131,-1.505583],[99.193535,-1.554393],[99.22258,-1.605247],[99.258133,-1.590373],[99.280853,-1.628746],[99.263031,-1.718946]]],[[[100.432472,-3.000107],[100.465523,-3.033659],[100.468422,-3.144241],[100.394447,-3.149384],[100.389984,-3.197419],[100.475174,-3.334633],[100.421425,-3.310643],[100.342789,-3.24575],[100.325836,-3.212034],[100.332291,-3.129642],[100.296883,-3.080192],[100.228333,-3.045524],[100.186508,-2.986326],[100.200531,-2.933076],[100.17469,-2.801497],[100.23597,-2.778423],[100.261101,-2.820208],[100.354225,-2.895449],[100.432472,-3.000107]]],[[[99.995766,-2.749434],[100.004059,-2.723478],[99.970131,-2.509001],[99.994774,-2.498358],[100.070412,-2.575727],[100.168579,-2.640264],[100.221405,-2.740431],[100.11644,-2.831824],[100.015343,-2.805559],[99.995766,-2.749434]]],[[[99.822586,-2.306719],[99.833534,-2.360941],[99.793526,-2.368245],[99.74221,-2.344413],[99.673538,-2.286497],[99.598953,-2.281999],[99.52739,-2.152481],[99.571342,-2.143682],[99.545197,-2.067696],[99.565895,-2.036215],[99.618942,-2.025629],[99.689621,-2.074452],[99.710625,-2.154402],[99.783386,-2.28467],[99.822586,-2.306719]]]]},"id":13,"properties":{"ID":26,"kode":13,"Propinsi":"SUMATERA BARAT","SUMBER":"Peta Dasar BAKOSURTANAL Skala 1 : 250.000"}},{"type":"Feature","geometry":{"type":"Polygon","coordinates":[[[105.785599,-4.117105],[105.736504,-4.14257],[105.705254,-4.098131],[105.651817,-4.087366],[105.609012,-3.941194],[105.51181,-3.870661],[105.476404,-3.821803],[105.432106,-3.826865],[105.414685,-3.776846],[105.353288,-3.794026],[105.339727,-3.729057],[105.281975,-3.798395],[105.290791,-3.839618],[105.245973,-3.907812],[105.201302,-3.892022],[105.173737,-3.91232],[105.133827,-3.991517],[105.112688,-3.999992],[105.0635,-4.119611],[105.063462,-4.11991],[105.011985,-4.173651],[104.966435,-4.170873],[104.815692,-4.241028],[104.788078,-4.261929],[104.737687,-4.251162],[104.734169,-4.251686],[104.655515,-4.250796],[104.601004,-4.232642],[104.448685,-4.298732],[104.330181,-4.424722],[104.311634,-4.521019],[104.332608,-4.612251],[104.294205,-4.647204],[104.303461,-4.764368],[104.325085,-4.806065],[104.32542,-4.808589],[104.347231,-4.822632],[104.348493,-4.822822],[104.349944,-4.85207],[104.348405,-4.853417],[104.311096,-4.885782],[104.309891,-4.88541],[104.190925,-4.865033],[104.160093,-4.922752],[104.110733,-4.923104],[104.060074,-4.894125],[104.020423,-4.905076],[104.019723,-4.90522],[103.955718,-4.904517],[103.95543,-4.904254],[103.93436,-4.886683],[103.86399,-4.918034],[103.864089,-4.847539],[103.823976,-4.802083],[103.777597,-4.796539],[103.777253,-4.79643],[103.762881,-4.7421],[103.704562,-4.697992],[103.693762,-4.652768],[103.638473,-4.598905],[103.630332,-4.554627],[103.590699,-4.52343],[103.521138,-4.57475],[103.476627,-4.564854],[103.405136,-4.499798],[103.428073,-4.40753],[103.468517,-4.348306],[103.453716,-4.3315],[103.329801,-4.292813],[103.307721,-4.256566],[103.200666,-4.247289],[103.185598,-4.163748],[103.155336,-4.110564],[103.128459,-4.025171],[102.956093,-4.012947],[102.914916,-3.97235],[102.886803,-3.989239],[102.79337,-3.954387],[102.746036,-3.892661],[102.686069,-3.858048],[102.63594,-3.812298],[102.655215,-3.772596],[102.728362,-3.75001],[102.735313,-3.702301],[102.7655,-3.644093],[102.809992,-3.608159],[102.813889,-3.534643],[102.847676,-3.536874],[102.921399,-3.593359],[102.952011,-3.531126],[102.981817,-3.526327],[102.998046,-3.466969],[102.989653,-3.370434],[102.888499,-3.375246],[102.881726,-3.345414],[102.816825,-3.333799],[102.773751,-3.280437],[102.742687,-3.315027],[102.686779,-3.317826],[102.640813,-3.349581],[102.596323,-3.333274],[102.512752,-3.274333],[102.491776,-3.244821],[102.485085,-3.1067],[102.441376,-3.057934],[102.389915,-3.044319],[102.322517,-3.068047],[102.247734,-3.027864],[102.223949,-2.929184],[102.132041,-2.87452],[102.12852,-2.834456],[102.070271,-2.779745],[102.070121,-2.779601],[102.066829,-2.766654],[102.125106,-2.729362],[102.23631,-2.687767],[102.25,-2.631226],[102.279852,-2.615552],[102.33295,-2.65582],[102.387126,-2.648317],[102.405707,-2.688557],[102.490935,-2.70477],[102.517768,-2.677439],[102.597958,-2.677392],[102.64112,-2.609328],[102.73603,-2.577646],[102.79447,-2.533695],[102.793521,-2.505252],[102.875275,-2.407647],[102.839739,-2.358138],[102.878348,-2.304883],[102.98499,-2.338936],[103.035798,-2.33815],[103.054261,-2.312252],[103.123599,-2.357747],[103.211938,-2.312515],[103.194719,-2.25453],[103.164581,-2.219417],[103.219055,-2.171653],[103.273361,-2.154748],[103.303619,-2.238668],[103.392789,-2.295459],[103.409337,-2.332503],[103.449943,-2.343645],[103.465737,-2.249964],[103.441574,-2.213186],[103.453247,-2.177541],[103.526903,-2.167123],[103.513543,-2.084383],[103.55055,-2.049371],[103.56171,-2.000056],[103.441719,-1.913766],[103.500085,-1.857687],[103.552617,-1.891252],[103.597851,-1.813841],[103.683861,-1.804445],[103.863641,-1.803907],[103.925284,-1.750187],[103.980489,-1.809214],[104.072833,-1.805048],[104.11097,-1.786794],[104.272829,-1.743732],[104.30012,-1.774048],[104.351075,-1.741535],[104.362201,-1.642867],[104.418398,-1.628021],[104.515165,-1.67627],[104.544899,-1.725683],[104.536062,-1.796749],[104.482233,-1.837572],[104.475063,-1.913292],[104.519772,-1.925953],[104.552302,-1.854772],[104.649983,-1.913998],[104.657544,-1.963975],[104.686527,-1.992045],[104.847588,-2.007696],[104.899483,-2.091442],[104.908005,-2.147511],[104.853889,-2.239455],[104.853081,-2.288282],[104.913132,-2.283812],[104.934425,-2.343508],[104.997681,-2.337891],[105.122139,-2.382225],[105.227684,-2.334802],[105.294975,-2.370025],[105.415565,-2.389337],[105.531751,-2.395946],[105.55791,-2.419285],[105.615726,-2.390048],[105.625537,-2.432843],[105.601795,-2.553382],[105.633308,-2.645045],[105.701469,-2.686577],[105.756975,-2.689149],[105.787621,-2.712982],[105.78997,-2.874425],[105.811295,-2.915317],[105.858688,-2.955325],[106.007011,-2.965389],[106.043472,-2.992686],[106.056297,-3.072323],[106.046761,-3.109661],[106.079933,-3.193721],[106.07856,-3.250618],[106.015045,-3.287257],[105.912909,-3.384527],[105.843343,-3.525817],[105.815506,-3.649148],[105.827038,-3.712559],[105.92809,-3.777244],[105.956879,-3.848718],[105.866005,-4.018025],[105.840332,-4.159925],[105.82164,-4.166204],[105.814331,-4.153293],[105.812897,-4.150985],[105.792374,-4.119071],[105.785599,-4.117105]]]},"id":16,"properties":{"ID":28,"kode":16,"Propinsi":"SUMATERA SELATAN","SUMBER":"Peta Dasar BAKOSURTANAL Skala 1 : 250.000"}},{"type":"Feature","geometry":{"type":"Polygon","coordinates":[[[101.294159,-2.280203],[101.306076,-2.23891],[101.291611,-2.133106],[101.243668,-2.021798],[101.194092,-1.989151],[101.144699,-1.917723],[101.124443,-1.78474],[101.125816,-1.679094],[101.18763,-1.677177],[101.21579,-1.714355],[101.258324,-1.693337],[101.319626,-1.693206],[101.415512,-1.671203],[101.431198,-1.696775],[101.492464,-1.681019],[101.526581,-1.616804],[101.567154,-1.572305],[101.694035,-1.480637],[101.720899,-1.42113],[101.691318,-1.397239],[101.719172,-1.344921],[101.689585,-1.295043],[101.709229,-1.237597],[101.815407,-1.209807],[101.858885,-1.158166],[101.878525,-1.110225],[101.830315,-1.10193],[101.821533,-0.977189],[101.845284,-0.982566],[101.924278,-0.941475],[101.983551,-0.880408],[102.057976,-0.889922],[102.116615,-0.921174],[102.16272,-0.898907],[102.217072,-0.946344],[102.254326,-0.921539],[102.304298,-0.916958],[102.324387,-0.960805],[102.38623,-0.993385],[102.393372,-1.03016],[102.44252,-1.025452],[102.495422,-1.084733],[102.616814,-1.094634],[102.638,-1.12041],[102.687668,-1.078578],[102.780602,-1.023676],[102.808495,-0.96665],[102.90477,-0.894179],[103.008949,-0.755179],[103.126038,-0.746429],[103.342834,-0.785774],[103.482338,-0.771407],[103.489655,-0.798365],[103.544289,-0.81498],[103.549156,-0.858699],[103.588211,-0.875501],[103.669304,-0.952914],[103.714386,-0.95547],[103.748962,-0.987215],[103.870873,-1.000657],[103.921692,-0.98653],[104.05471,-1.011177],[104.127846,-1.049528],[104.209656,-1.071357],[104.264328,-1.046509],[104.336029,-1.043973],[104.369728,-1.022185],[104.413643,-1.130576],[104.40168,-1.230084],[104.46064,-1.336228],[104.46386,-1.401982],[104.444763,-1.469791],[104.465553,-1.596184],[104.515165,-1.67627],[104.418398,-1.628021],[104.362201,-1.642867],[104.351075,-1.741535],[104.30012,-1.774048],[104.272829,-1.743732],[104.11097,-1.786794],[104.072833,-1.805048],[103.980489,-1.809214],[103.925284,-1.750187],[103.863641,-1.803907],[103.683861,-1.804445],[103.597851,-1.813841],[103.552617,-1.891252],[103.500085,-1.857687],[103.441719,-1.913766],[103.56171,-2.000056],[103.55055,-2.049371],[103.513543,-2.084383],[103.526903,-2.167123],[103.453247,-2.177541],[103.441574,-2.213186],[103.465737,-2.249964],[103.449943,-2.343645],[103.409337,-2.332503],[103.392789,-2.295459],[103.303619,-2.238668],[103.273361,-2.154748],[103.219055,-2.171653],[103.164581,-2.219417],[103.194719,-2.25453],[103.211938,-2.312515],[103.123599,-2.357747],[103.054261,-2.312252],[103.035798,-2.33815],[102.98499,-2.338936],[102.878348,-2.304883],[102.839739,-2.358138],[102.875275,-2.407647],[102.793521,-2.505252],[102.79447,-2.533695],[102.73603,-2.577646],[102.64112,-2.609328],[102.597958,-2.677392],[102.517768,-2.677439],[102.490935,-2.70477],[102.405707,-2.688557],[102.387126,-2.648317],[102.33295,-2.65582],[102.279852,-2.615552],[102.25,-2.631226],[102.23631,-2.687767],[102.125106,-2.729362],[102.066829,-2.766654],[101.989708,-2.723145],[101.915871,-2.738421],[101.867928,-2.728184],[101.733284,-2.607907],[101.674995,-2.532605],[101.601181,-2.537571],[101.546486,-2.560535],[101.559204,-2.451228],[101.330421,-2.309457],[101.294159,-2.280203]],[[101.466292,-2.163241],[101.528671,-2.17382],[101.524849,-2.128504],[101.46859,-2.129224],[101.466292,-2.163241]]]},"id":15,"properties":{"ID":29,"kode":15,"Propinsi":"JAMBI","SUMBER":"Peta Dasar BAKOSURTANAL Skala 1 : 250.000"}},{"type":"Feature","geometry":{"type":"Polygon","coordinates":[[[103.777539,-4.79652],[103.777597,-4.796539],[103.823976,-4.802083],[103.864089,-4.847539],[103.86399,-4.918034],[103.93436,-4.886683],[103.95543,-4.904254],[103.955718,-4.904517],[104.019723,-4.90522],[104.020423,-4.905076],[104.060074,-4.894125],[104.110733,-4.923104],[104.160093,-4.922752],[104.190925,-4.865033],[104.309891,-4.88541],[104.311096,-4.885782],[104.348405,-4.853417],[104.349944,-4.85207],[104.348493,-4.822822],[104.347231,-4.822632],[104.32542,-4.808589],[104.325085,-4.806065],[104.303461,-4.764368],[104.294205,-4.647204],[104.332608,-4.612251],[104.311634,-4.521019],[104.330181,-4.424722],[104.448685,-4.298732],[104.601004,-4.232642],[104.655515,-4.250796],[104.734169,-4.251686],[104.737687,-4.251162],[104.788078,-4.261929],[104.815692,-4.241028],[104.966435,-4.170873],[105.011985,-4.173651],[105.063462,-4.11991],[105.0635,-4.119611],[105.112688,-3.999992],[105.133827,-3.991517],[105.173737,-3.91232],[105.201302,-3.892022],[105.245973,-3.907812],[105.290791,-3.839618],[105.281975,-3.798395],[105.339727,-3.729057],[105.353288,-3.794026],[105.414685,-3.776846],[105.432106,-3.826865],[105.476404,-3.821803],[105.51181,-3.870661],[105.609012,-3.941194],[105.651817,-4.087366],[105.705254,-4.098131],[105.736504,-4.14257],[105.785599,-4.117105],[105.792374,-4.119071],[105.812897,-4.150985],[105.814331,-4.153293],[105.82164,-4.166204],[105.817635,-4.316465],[105.858208,-4.376366],[105.898064,-4.465971],[105.903992,-4.543446],[105.884163,-4.593911],[105.912933,-4.647402],[105.879227,-4.69676],[105.859253,-4.776061],[105.870087,-4.876098],[105.903664,-4.938873],[105.86618,-4.98373],[105.855354,-5.079322],[105.863403,-5.259794],[105.819687,-5.336089],[105.821823,-5.593658],[105.809662,-5.68149],[105.789368,-5.721141],[105.791489,-5.787411],[105.774124,-5.837541],[105.710793,-5.856688],[105.603989,-5.830646],[105.581818,-5.802879],[105.587814,-5.742107],[105.552834,-5.69501],[105.407997,-5.623131],[105.368057,-5.549149],[105.292465,-5.446177],[105.250793,-5.471121],[105.265236,-5.517141],[105.24472,-5.589002],[105.205086,-5.576796],[105.178093,-5.668644],[105.194298,-5.706558],[105.157707,-5.747686],[105.185173,-5.804526],[105.148201,-5.810163],[104.986458,-5.715514],[104.927589,-5.696409],[104.824852,-5.621506],[104.775848,-5.605471],[104.709152,-5.522681],[104.595329,-5.497139],[104.529739,-5.541902],[104.570694,-5.609401],[104.639206,-5.688042],[104.646019,-5.748027],[104.709442,-5.845267],[104.695053,-5.875686],[104.721489,-5.934022],[104.592552,-5.937325],[104.561798,-5.865867],[104.45295,-5.764961],[104.412384,-5.706299],[104.29969,-5.641016],[104.318222,-5.60884],[104.297874,-5.573801],[104.166809,-5.476431],[104.119209,-5.456481],[103.998734,-5.32204],[103.996071,-5.26727],[103.905228,-5.207043],[103.933052,-5.170211],[103.908859,-5.127353],[103.864105,-5.110247],[103.835388,-5.065404],[103.770218,-5.028835],[103.715195,-4.967688],[103.65519,-4.954104],[103.598244,-4.922405],[103.603287,-4.89334],[103.660652,-4.85998],[103.663071,-4.858659],[103.71843,-4.802312],[103.746193,-4.796777],[103.772308,-4.802989],[103.77594,-4.798273],[103.777539,-4.79652]]]},"id":18,"properties":{"ID":30,"kode":18,"Propinsi":"LAMPUNG","SUMBER":"Peta Dasar BAKOSURTANAL Skala 1 : 250.000"}},{"type":"Feature","geometry":{"type":"MultiPolygon","coordinates":[[[[103.777253,-4.79643],[103.777539,-4.79652],[103.77594,-4.798273],[103.772308,-4.802989],[103.746193,-4.796777],[103.71843,-4.802312],[103.663071,-4.858659],[103.660652,-4.85998],[103.603287,-4.89334],[103.598244,-4.922405],[103.535866,-4.914454],[103.500389,-4.875894],[103.429695,-4.87312],[103.401039,-4.816718],[103.309036,-4.781792],[103.277702,-4.704457],[103.244278,-4.672636],[103.113358,-4.578361],[103.040985,-4.538898],[102.900131,-4.49004],[102.883217,-4.442],[102.792618,-4.35461],[102.692581,-4.272606],[102.347687,-4.018148],[102.277046,-3.951083],[102.307587,-3.900745],[102.300446,-3.841087],[102.254799,-3.797299],[102.265976,-3.764632],[102.214775,-3.653597],[102.087273,-3.550713],[101.933876,-3.477239],[101.899567,-3.425596],[101.799576,-3.372551],[101.620651,-3.239907],[101.523598,-3.11352],[101.48774,-3.022807],[101.405663,-2.925677],[101.325256,-2.739109],[101.292618,-2.709787],[101.154854,-2.639229],[101.027755,-2.482182],[101.155373,-2.390157],[101.244644,-2.344946],[101.294159,-2.280203],[101.330421,-2.309457],[101.559204,-2.451228],[101.546486,-2.560535],[101.601181,-2.537571],[101.674995,-2.532605],[101.733284,-2.607907],[101.867928,-2.728184],[101.915871,-2.738421],[101.989708,-2.723145],[102.066829,-2.766654],[102.070121,-2.779601],[102.070271,-2.779745],[102.12852,-2.834456],[102.132041,-2.87452],[102.223949,-2.929184],[102.247734,-3.027864],[102.322517,-3.068047],[102.389915,-3.044319],[102.441376,-3.057934],[102.485085,-3.1067],[102.491776,-3.244821],[102.512752,-3.274333],[102.596323,-3.333274],[102.640813,-3.349581],[102.686779,-3.317826],[102.742687,-3.315027],[102.773751,-3.280437],[102.816825,-3.333799],[102.881726,-3.345414],[102.888499,-3.375246],[102.989653,-3.370434],[102.998046,-3.466969],[102.981817,-3.526327],[102.952011,-3.531126],[102.921399,-3.593359],[102.847676,-3.536874],[102.813889,-3.534643],[102.809992,-3.608159],[102.7655,-3.644093],[102.735313,-3.702301],[102.728362,-3.75001],[102.655215,-3.772596],[102.63594,-3.812298],[102.686069,-3.858048],[102.746036,-3.892661],[102.79337,-3.954387],[102.886803,-3.989239],[102.914916,-3.97235],[102.956093,-4.012947],[103.128459,-4.025171],[103.155336,-4.110564],[103.185598,-4.163748],[103.200666,-4.247289],[103.307721,-4.256566],[103.329801,-4.292813],[103.453716,-4.3315],[103.468517,-4.348306],[103.428073,-4.40753],[103.405136,-4.499798],[103.476627,-4.564854],[103.521138,-4.57475],[103.590699,-4.52343],[103.630332,-4.554627],[103.638473,-4.598905],[103.693762,-4.652768],[103.704562,-4.697992],[103.762881,-4.7421],[103.777253,-4.79643]]],[[[102.156013,-5.285942],[102.169739,-5.277181],[102.400116,-5.390039],[102.370514,-5.503264],[102.294418,-5.47437],[102.273949,-5.497576],[102.215576,-5.409292],[102.104958,-5.351578],[102.156013,-5.285942]]]]},"id":17,"properties":{"ID":31,"kode":17,"Propinsi":"BENGKULU","SUMBER":"Peta Dasar BAKOSURTANAL Skala 1 : 250.000"}}]}